{
    "links": {
        "self": "http://www.neowsapp.com/rest/v1/neo/3697802?api_key=iIulBulltgU6a56xZRHN4H3l9WmuAYTsLGpBGhQ2"
    },
    "id": "3697802",
    "neo_reference_id": "3697802",
    "name": "(2014 WG200)",
    "designation": "2014 WG200",
    "nasa_jpl_url": "http://ssd.jpl.nasa.gov/sbdb.cgi?sstr=3697802",
    "absolute_magnitude_h": 24.6,
    "estimated_diameter": {
        "kilometers": {
            "estimated_diameter_min": 0.0319561887,
            "estimated_diameter_max": 0.0714562102
        },
        "meters": {
            "estimated_diameter_min": 31.9561886721,
            "estimated_diameter_max": 71.4562101727
        },
        "miles": {
            "estimated_diameter_min": 0.0198566489,
            "estimated_diameter_max": 0.0444008168
        },
        "feet": {
            "estimated_diameter_min": 104.8431420431,
            "estimated_diameter_max": 234.436392583
        }
    },
    "is_potentially_hazardous_asteroid": false,
    "close_approach_data": [
        {
            "close_approach_date": "2014-11-11",
            "close_approach_date_full": "2014-Nov-11 06:29",
            "epoch_date_close_approach": 1415687340000,
            "relative_velocity": {
                "kilometers_per_second": "6.6787177453",
                "kilometers_per_hour": "24043.3838832455",
                "miles_per_hour": "14939.6237245644"
            },
            "miss_distance": {
                "astronomical": "0.0587629357",
                "lunar": "22.8587819873",
                "kilometers": "8790810.015666959",
                "miles": "5462356.0509196742"
            },
            "orbiting_body": "Earth"
        }
    ],
    "orbital_data": {
        "orbit_id": "4",
        "orbit_determination_date": "2017-04-06 08:37:19",
        "first_observation_date": "2014-11-22",
        "last_observation_date": "2014-11-24",
        "data_arc_in_days": 2,
        "observations_used": 19,
        "orbit_uncertainty": "9",
        "minimum_orbit_intersection": ".0554392",
        "jupiter_tisserand_invariant": "3.234",
        "epoch_osculation": "2456984.5",
        "eccentricity": ".5762876039728355",
        "semi_major_axis": "2.467815154738742",
        "inclination": ".7843397024341803",
        "ascending_node_longitude": "279.0469604903993",
        "orbital_period": "1416.013413080089",
        "perihelion_distance": "1.0456438721665",
        "perihelion_argument": "125.4757209039933",
        "aphelion_distance": "3.889986437310983",
        "perihelion_time": "2456969.921520071661",
        "mean_anomaly": "3.706358093590461",
        "mean_motion": ".2542348798920867",
        "equinox": "J2000",
        "orbit_class": {
            "orbit_class_type": "AMO",
            "orbit_class_description": "Near-Earth asteroid orbits similar to that of 1221 Amor",
            "orbit_class_range": "1.017 AU < q (perihelion) < 1.3 AU"
        }
    },
    "is_sentry_object": false
}